STARLINK-36858          
1 68021U 26040G   26068.91668981 -.01173651  47013-3 -16837-2 0  9990
2 68021  97.2769  17.1161 0000872  94.6122 268.5447 16.05521937  2464
STARLINK-36320          
1 68090U 26042X   26068.75002315 -.01283282  54270-3 -19998-2 0  9999
2 68090  53.1607 194.9613 0000787  60.4765  11.2110 16.03451138  2055
